{
  "norad_id": 67105,
  "name": "STARLINK-36261",
  "history": [
    {
      "epoch": "2026-04-15T21:09:57.368736Z",
      "apogee_km": 483.9259488869029,
      "perigee_km": 482.11185926586495,
      "latitude_deg": -1.456764499571744e-05,
      "longitude_deg": 157.49013860997474,
      "height_km": 482.76259471633915,
      "semi_major_axis_km": 6861.155904076384,
      "eccentricity": 0.0001322,
      "inclination_deg": 43.0006,
      "raan_deg": 319.0168,
      "arg_perigee_deg": 272.0861,
      "mean_anomaly_deg": 87.9839,
      "mean_motion_rev_day": 15.27590083
    },
    {
      "epoch": "2026-04-16T20:42:18.131040Z",
      "apogee_km": 483.758718334213,
      "perigee_km": 482.28356933328905,
      "latitude_deg": 1.2816623973138567e-05,
      "longitude_deg": 157.89594356913085,
      "height_km": 482.7353569738725,
      "semi_major_axis_km": 6861.158143833751,
      "eccentricity": 0.0001075,
      "inclination_deg": 42.9985,
      "raan_deg": 313.4758,
      "arg_perigee_deg": 274.8257,
      "mean_anomaly_deg": 85.2472,
      "mean_motion_rev_day": 15.27589335
    },
    {
      "epoch": "2026-04-17T21:48:48.550464Z",
      "apogee_km": 483.9500165160871,
      "perigee_km": 482.08927083432354,
      "latitude_deg": -2.8541386186361745e-05,
      "longitude_deg": 134.33118578029908,
      "height_km": 482.7482675284059,
      "semi_major_axis_km": 6861.1566436752055,
      "eccentricity": 0.0001356,
      "inclination_deg": 43.0003,
      "raan_deg": 307.569,
      "arg_perigee_deg": 272.9624,
      "mean_anomaly_deg": 87.1072,
      "mean_motion_rev_day": 15.27589836
    },
    {
      "epoch": "2026-04-18T05:39:35.407008Z",
      "apogee_km": 483.9325314505404,
      "perigee_km": 482.12159580758635,
      "latitude_deg": -4.579324245442777e-05,
      "longitude_deg": 14.466693776379294,
      "height_km": 482.74220419144797,
      "semi_major_axis_km": 6861.164063629063,
      "eccentricity": 0.00013197,
      "inclination_deg": 42.9976,
      "raan_deg": 305.722,
      "arg_perigee_deg": 273.8779,
      "mean_anomaly_deg": 86.1921,
      "mean_motion_rev_day": 15.27587358
    },
    {
      "epoch": "2026-04-19T19:19:20.030016Z",
      "apogee_km": 483.7061097351425,
      "perigee_km": 482.29820398015636,
      "latitude_deg": 2.56573635887603e-05,
      "longitude_deg": 159.12060014826932,
      "height_km": 483.06987436080163,
      "semi_major_axis_km": 6861.139156857649,
      "eccentricity": 0.0001026,
      "inclination_deg": 42.9982,
      "raan_deg": 296.8585,
      "arg_perigee_deg": 245.5234,
      "mean_anomaly_deg": 114.5511,
      "mean_motion_rev_day": 15.27595676
    },
    {
      "epoch": "2026-04-20T04:44:16.782144Z",
      "apogee_km": 483.4457034367215,
      "perigee_km": 482.65145259421024,
      "latitude_deg": 5.567740017811473e-05,
      "longitude_deg": 15.282872565736634,
      "height_km": 482.4383187208084,
      "semi_major_axis_km": 6861.185578015466,
      "eccentricity": 5.788e-05,
      "inclination_deg": 43.0034,
      "raan_deg": 294.6439,
      "arg_perigee_deg": 13.6229,
      "mean_anomaly_deg": 346.4639,
      "mean_motion_rev_day": 15.27580173
    },
    {
      "epoch": "2026-04-21T19:58:12.055008Z",
      "apogee_km": 484.03239813956316,
      "perigee_km": 481.99463643592844,
      "latitude_deg": -3.1466248739013205e-05,
      "longitude_deg": 135.95897026703707,
      "height_km": 482.8010882971051,
      "semi_major_axis_km": 6861.150517287745,
      "eccentricity": 0.0001485,
      "inclination_deg": 43.001,
      "raan_deg": 285.4116,
      "arg_perigee_deg": 269.399,
      "mean_anomaly_deg": 90.6691,
      "mean_motion_rev_day": 15.27591882
    },
    {
      "epoch": "2026-04-22T19:30:32.515776Z",
      "apogee_km": 484.09285016099693,
      "perigee_km": 481.89865990593717,
      "latitude_deg": -2.85469564043196e-05,
      "longitude_deg": 136.36820469247377,
      "height_km": 482.88778446702713,
      "semi_major_axis_km": 6861.132755033466,
      "eccentricity": 0.0001599,
      "inclination_deg": 43.0008,
      "raan_deg": 279.8728,
      "arg_perigee_deg": 263.9779,
      "mean_anomaly_deg": 96.089,
      "mean_motion_rev_day": 15.27597814
    },
    {
      "epoch": "2026-04-23T03:21:19.360224Z",
      "apogee_km": 483.9753338649907,
      "perigee_km": 482.0653248876388,
      "latitude_deg": 4.2251439197731e-05,
      "longitude_deg": 16.504656323995526,
      "height_km": 482.85287456897674,
      "semi_major_axis_km": 6861.157329376314,
      "eccentricity": 0.00013919,
      "inclination_deg": 43.0001,
      "raan_deg": 278.0266,
      "arg_perigee_deg": 266.6471,
      "mean_anomaly_deg": 93.4222,
      "mean_motion_rev_day": 15.27589607
    },
    {
      "epoch": "2026-04-24T10:44:27.277152Z",
      "apogee_km": 484.6053553392967,
      "perigee_km": 481.3408391550274,
      "latitude_deg": -2.1429966033647164e-05,
      "longitude_deg": -102.95245873946344,
      "height_km": 482.4581780307554,
      "semi_major_axis_km": 6861.110097247162,
      "eccentricity": 0.0002379,
      "inclination_deg": 42.9982,
      "raan_deg": 270.6415,
      "arg_perigee_deg": 280.3117,
      "mean_anomaly_deg": 79.7466,
      "mean_motion_rev_day": 15.27605381
    },
    {
      "epoch": "2026-04-25T10:16:47.982432Z",
      "apogee_km": 486.71243163679264,
      "perigee_km": 479.2502793133781,
      "latitude_deg": 3.007358447509053e-06,
      "longitude_deg": -102.5439210619689,
      "height_km": 481.3576104261793,
      "semi_major_axis_km": 6861.118355475085,
      "eccentricity": 0.0005438,
      "inclination_deg": 42.9997,
      "raan_deg": 265.103,
      "arg_perigee_deg": 292.0833,
      "mean_anomaly_deg": 67.9441,
      "mean_motion_rev_day": 15.27602623
    },
    {
      "epoch": "2026-04-26T17:39:55.535616Z",
      "apogee_km": 483.95680225441265,
      "perigee_km": 482.02210181746796,
      "latitude_deg": 2.4796628602351108e-05,
      "longitude_deg": 138.00007708395273,
      "height_km": 482.84969055521833,
      "semi_major_axis_km": 6861.12645203594,
      "eccentricity": 0.00014099,
      "inclination_deg": 42.9985,
      "raan_deg": 257.7174,
      "arg_perigee_deg": 265.0353,
      "mean_anomaly_deg": 95.0338,
      "mean_motion_rev_day": 15.27599919
    }
  ]
}